{"type": "FeatureCollection", "features": [ {"type": "Feature", "properties": {"norad_id": 52984, "name": "COSMOS 2557 (706K)", "group": "gnss", "lat": -13.652356045323986, "lon": -45.447403796295816, "alt_km": 19119.01971802568, "timestamp": "2025-12-07T03:52:32.739962+00:00", "meta": {"OBJECT_NAME": "COSMOS 2557 (706K)", "OBJECT_ID": "2022-075A", "EPOCH": "2025-12-06T05:49:32.094912", "MEAN_MOTION": 2.13101752, "ECCENTRICITY": 0.00137143, "INCLINATION": 64.4134, "RA_OF_ASC_NODE": 321.2801, "ARG_OF_PERICENTER": 276.8057, "MEAN_ANOMALY": 83.0335, "EPHEMERIS_TYPE": 0, "CLASSIFICATION_TYPE": "U", "NORAD_CAT_ID": 52984, "ELEMENT_SET_NO": 999, "REV_AT_EPOCH": 2660, "BSTAR": 0, "MEAN_MOTION_DOT": -5.1e-07, "MEAN_MOTION_DDOT": 0}, "tle": {"line1": "1 52984U 22075A   25340.24273258 -.00000051  00000+0  00000+0 0  9996", "line2": "2 52984  64.4134 321.2801 0013714 276.8057  83.0335  2.13101752 26608"}}, "geometry": {"type": "Point", "coordinates": [-45.447403796295816, -13.652356045323986]}}, {"type": "Feature", "properties": {"norad_id": 54031, "name": "COSMOS 2559 (707K)", "group": "gnss", "lat": 48.78362736701272, "lon": 108.1205083767826, "alt_km": 19113.511153229003, "timestamp": "2025-12-07T03:52:32.739974+00:00", "meta": {"OBJECT_NAME": "COSMOS 2559 (707K)", "OBJECT_ID": "2022-130A", "EPOCH": "2025-12-03T17:10:26.893920", "MEAN_MOTION": 2.13101235, "ECCENTRICITY": 0.00120262, "INCLINATION": 64.3873, "RA_OF_ASC_NODE": 321.4588, "ARG_OF_PERICENTER": 192.7508, "MEAN_ANOMALY": 167.2215, "EPHEMERIS_TYPE": 0, "CLASSIFICATION_TYPE": "U", "NORAD_CAT_ID": 54031, "ELEMENT_SET_NO": 999, "REV_AT_EPOCH": 2452, "BSTAR": 0, "MEAN_MOTION_DOT": -4.4e-07, "MEAN_MOTION_DDOT": 0}, "tle": {"line1": "1 54031U 22130A   25337.71558905 -.00000044  00000+0  00000+0 0  9998", "line2": "2 54031  64.3873 321.4588 0012026 192.7508 167.2215  2.13101235 24525"}}, "geometry": {"type": "Point", "coordinates": [108.1205083767826, 48.78362736701272]}}, {"type": "Feature", "properties": {"norad_id": 54377, "name": "COSMOS 2564 (761)", "group": "gnss", "lat": -53.754676151872246, "lon": 59.189344855917454, "alt_km": 19118.24618310071, "timestamp": "2025-12-07T03:52:32.739985+00:00", "meta": {"OBJECT_NAME": "COSMOS 2564 (761)", "OBJECT_ID": "2022-161A", "EPOCH": "2025-12-05T21:44:52.430496", "MEAN_MOTION": 2.13101969, "ECCENTRICITY": 0.00086841, "INCLINATION": 64.7377, "RA_OF_ASC_NODE": 199.126, "ARG_OF_PERICENTER": 205.8227, "MEAN_ANOMALY": 154.2251, "EPHEMERIS_TYPE": 0, "CLASSIFICATION_TYPE": "U", "NORAD_CAT_ID": 54377, "ELEMENT_SET_NO": 999, "REV_AT_EPOCH": 2351, "BSTAR": 0, "MEAN_MOTION_DOT": 8e-07, "MEAN_MOTION_DDOT": 0}, "tle": {"line1": "1 54377U 22161A   25339.90616239  .00000080  00000+0  00000+0 0  9992", "line2": "2 54377  64.7377 199.1260 0008684 205.8227 154.2251  2.13101969 23515"}}, "geometry": {"type": "Point", "coordinates": [59.189344855917454, -53.754676151872246]}}, {"type": "Feature", "properties": {"norad_id": 55268, "name": "GPS BIII-6  (PRN 28)", "group": "gnss", "lat": 47.669516726675894, "lon": -73.98665774703076, "alt_km": 20181.536857385472, "timestamp": "2025-12-07T03:52:32.739999+00:00", "meta": {"OBJECT_NAME": "GPS BIII-6  (PRN 28)", "OBJECT_ID": "2023-009A", "EPOCH": "2025-12-03T18:12:38.807136", "MEAN_MOTION": 2.00556312, "ECCENTRICITY": 0.00036355, "INCLINATION": 55.1062, "RA_OF_ASC_NODE": 156.1984, "ARG_OF_PERICENTER": 358.5946, "MEAN_ANOMALY": 180.1179, "EPHEMERIS_TYPE": 0, "CLASSIFICATION_TYPE": "U", "NORAD_CAT_ID": 55268, "ELEMENT_SET_NO": 999, "REV_AT_EPOCH": 2132, "BSTAR": 0, "MEAN_MOTION_DOT": 9.9e-07, "MEAN_MOTION_DDOT": 0}, "tle": {"line1": "1 55268U 23009A   25337.75878249  .00000099  00000+0  00000+0 0  9996", "line2": "2 55268  55.1062 156.1984 0003635 358.5946 180.1179  2.00556312 21327"}}, "geometry": {"type": "Point", "coordinates": [-73.98665774703076, 47.669516726675894]}}, {"type": "Feature", "properties": {"norad_id": 56564, "name": "BEIDOU-3 G4 (C62)", "group": "gnss", "lat": -0.11814189699511428, "lon": -65.58565141651549, "alt_km": 35792.10470384874, "timestamp": "2025-12-07T03:52:32.740013+00:00", "meta": {"OBJECT_NAME": "BEIDOU-3 G4 (C62)", "OBJECT_ID": "2023-066A", "EPOCH": "2025-12-06T13:00:38.692800", "MEAN_MOTION": 1.00270963, "ECCENTRICITY": 0.00031605, "INCLINATION": 0.829, "RA_OF_ASC_NODE": 301.5238, "ARG_OF_PERICENTER": 236.9643, "MEAN_ANOMALY": 252.3208, "EPHEMERIS_TYPE": 0, "CLASSIFICATION_TYPE": "U", "NORAD_CAT_ID": 56564, "ELEMENT_SET_NO": 999, "REV_AT_EPOCH": 946, "BSTAR": 0, "MEAN_MOTION_DOT": -1.04e-06, "MEAN_MOTION_DDOT": 0}, "tle": {"line1": "1 56564U 23066A   25340.54211450 -.00000104  00000+0  00000+0 0  9993", "line2": "2 56564   0.8290 301.5238 0003160 236.9643 252.3208  1.00270963  9461"}}, "geometry": {"type": "Point", "coordinates": [-65.58565141651549, -0.11814189699511428]}}, {"type": "Feature", "properties": {"norad_id": 56759, "name": "NVS-01 (IRNSS-1J)", "group": "gnss", "lat": 0.5225386208699923, "lon": -96.2129514391823, "alt_km": 35750.93184311515, "timestamp": "2025-12-07T03:52:32.740025+00:00", "meta": {"OBJECT_NAME": "NVS-01 (IRNSS-1J)", "OBJECT_ID": "2023-076A", "EPOCH": "2025-12-06T12:34:10.875072", "MEAN_MOTION": 1.002658, "ECCENTRICITY": 0.00087238, "INCLINATION": 2.6341, "RA_OF_ASC_NODE": 251.8288, "ARG_OF_PERICENTER": 7.5159, "MEAN_ANOMALY": 134.2556, "EPHEMERIS_TYPE": 0, "CLASSIFICATION_TYPE": "U", "NORAD_CAT_ID": 56759, "ELEMENT_SET_NO": 999, "REV_AT_EPOCH": 918, "BSTAR": 0, "MEAN_MOTION_DOT": -3.27e-06, "MEAN_MOTION_DDOT": 0}, "tle": {"line1": "1 56759U 23076A   25340.52373698 -.00000327  00000+0  00000+0 0  9998", "line2": "2 56759   2.6341 251.8288 0008723   7.5159 134.2556  1.00265800  9187"}}, "geometry": {"type": "Point", "coordinates": [-96.2129514391823, 0.5225386208699923]}}, {"type": "Feature", "properties": {"norad_id": 57517, "name": "COSMOS 2569 (703K)", "group": "gnss", "lat": -46.16960523353805, "lon": -72.14018539759465, "alt_km": 19120.22986252872, "timestamp": "2025-12-07T03:52:32.740037+00:00", "meta": {"OBJECT_NAME": "COSMOS 2569 (703K)", "OBJECT_ID": "2023-114A", "EPOCH": "2025-12-01T16:42:34.469856", "MEAN_MOTION": 2.13103822, "ECCENTRICITY": 0.0010109, "INCLINATION": 65.1883, "RA_OF_ASC_NODE": 79.2867, "ARG_OF_PERICENTER": 287.0179, "MEAN_ANOMALY": 72.8703, "EPHEMERIS_TYPE": 0, "CLASSIFICATION_TYPE": "U", "NORAD_CAT_ID": 57517, "ELEMENT_SET_NO": 999, "REV_AT_EPOCH": 1805, "BSTAR": 0, "MEAN_MOTION_DOT": -1.6e-07, "MEAN_MOTION_DDOT": 0}, "tle": {"line1": "1 57517U 23114A   25335.69623229 -.00000016  00000+0  00000+0 0  9999", "line2": "2 57517  65.1883  79.2867 0010109 287.0179  72.8703  2.13103822 18055"}}, "geometry": {"type": "Point", "coordinates": [-72.14018539759465, -46.16960523353805]}}, {"type": "Feature", "properties": {"norad_id": 58654, "name": "BEIDOU-3 M28 (C50)", "group": "gnss", "lat": 46.96961756501313, "lon": 115.97108689645589, "alt_km": 21527.824627927053, "timestamp": "2025-12-07T03:52:32.740048+00:00", "meta": {"OBJECT_NAME": "BEIDOU-3 M28 (C50)", "OBJECT_ID": "2023-207A", "EPOCH": "2025-12-03T07:26:02.398272", "MEAN_MOTION": 1.86229561, "ECCENTRICITY": 0.00020314, "INCLINATION": 55.5764, "RA_OF_ASC_NODE": 68.9209, "ARG_OF_PERICENTER": 265.1091, "MEAN_ANOMALY": 94.871, "EPHEMERIS_TYPE": 0, "CLASSIFICATION_TYPE": "U", "NORAD_CAT_ID": 58654, "ELEMENT_SET_NO": 999, "REV_AT_EPOCH": 1319, "BSTAR": 0, "MEAN_MOTION_DOT": -5.1e-07, "MEAN_MOTION_DDOT": 0}, "tle": {"line1": "1 58654U 23207A   25337.30974998 -.00000051  00000+0  00000+0 0  9996", "line2": "2 58654  55.5764  68.9209 0002031 265.1091  94.8710  1.86229561 13199"}}, "geometry": {"type": "Point", "coordinates": [115.97108689645589, 46.96961756501313]}}, {"type": "Feature", "properties": {"norad_id": 58655, "name": "BEIDOU-3 M26 (C48)", "group": "gnss", "lat": -14.758792936164241, "lon": -100.82434495757414, "alt_km": 21524.412931874194, "timestamp": "2025-12-07T03:52:32.740074+00:00", "meta": {"OBJECT_NAME": "BEIDOU-3 M26 (C48)", "OBJECT_ID": "2023-207B", "EPOCH": "2025-12-06T07:54:02.857536", "MEAN_MOTION": 1.862311, "ECCENTRICITY": 0.00035756, "INCLINATION": 55.5812, "RA_OF_ASC_NODE": 68.8049, "ARG_OF_PERICENTER": 252.6761, "MEAN_ANOMALY": 107.299, "EPHEMERIS_TYPE": 0, "CLASSIFICATION_TYPE": "U", "NORAD_CAT_ID": 58655, "ELEMENT_SET_NO": 999, "REV_AT_EPOCH": 1323, "BSTAR": 0, "MEAN_MOTION_DOT": -4.8e-07, "MEAN_MOTION_DDOT": 0}, "tle": {"line1": "1 58655U 23207B   25340.32919974 -.00000048  00000+0  00000+0 0  9992", "line2": "2 58655  55.5812  68.8049 0003575 252.6761 107.2990  1.86231100 13230"}}, "geometry": {"type": "Point", "coordinates": [-100.82434495757414, -14.758792936164241]}}, {"type": "Feature", "properties": {"norad_id": 59598, "name": "GSAT0225 (GALILEO 29)", "group": "gnss", "lat": 54.74155620040525, "lon": -155.52928893877717, "alt_km": 23214.483427760773, "timestamp": "2025-12-07T03:52:32.740086+00:00", "meta": {"OBJECT_NAME": "GSAT0225 (GALILEO 29)", "OBJECT_ID": "2024-079A", "EPOCH": "2025-12-04T01:47:23.955648", "MEAN_MOTION": 1.70474518, "ECCENTRICITY": 0.0002, "INCLINATION": 54.9978, "RA_OF_ASC_NODE": 106.5374, "ARG_OF_PERICENTER": 171.9845, "MEAN_ANOMALY": 188.0819, "EPHEMERIS_TYPE": 0, "CLASSIFICATION_TYPE": "U", "NORAD_CAT_ID": 59598, "ELEMENT_SET_NO": 999, "REV_AT_EPOCH": 999, "BSTAR": 0, "MEAN_MOTION_DOT": 1.5e-07, "MEAN_MOTION_DDOT": 0}, "tle": {"line1": "1 59598U 24079A   25338.07458282  .00000015  00000+0  00000+0 0  9999", "line2": "2 59598  54.9978 106.5374 0002000 171.9845 188.0819  1.70474518  9992"}}, "geometry": {"type": "Point", "coordinates": [-155.52928893877717, 54.74155620040525]}}]}